[{"OBJECT_NAME":"STARLINK-32900","OBJECT_ID":"2025-037S","EPOCH":"2026-03-09T21:27:27.753408","MEAN_MOTION":14.98334642,"ECCENTRICITY":0.00024557,"INCLINATION":70.0044,"RA_OF_ASC_NODE":353.9042,"ARG_OF_PERICENTER":261.8382,"MEAN_ANOMALY":98.2498,"EPHEMERIS_TYPE":0,"CLASSIFICATION_TYPE":"U","NORAD_CAT_ID":63093,"ELEMENT_SET_NO":999,"REV_AT_EPOCH":5849,"BSTAR":0.00067469364,"MEAN_MOTION_DOT":7.967e-5,"MEAN_MOTION_DDOT":0},{"OBJECT_NAME":"COSMOS 2251 DEB","OBJECT_ID":"1993-036BDM","EPOCH":"2026-03-07T08:26:45.291840","MEAN_MOTION":15.06951358,"ECCENTRICITY":0.00416459,"INCLINATION":73.8833,"RA_OF_ASC_NODE":199.9445,"ARG_OF_PERICENTER":129.9164,"MEAN_ANOMALY":230.5698,"EPHEMERIS_TYPE":0,"CLASSIFICATION_TYPE":"U","NORAD_CAT_ID":36551,"ELEMENT_SET_NO":999,"REV_AT_EPOCH":68204,"BSTAR":0.0035281021,"MEAN_MOTION_DOT":0.00054188,"MEAN_MOTION_DDOT":0}]
